NOAA 18                 
1 28654U 05018A   26098.19657751  .00000045  00000+0  46872-4 0  9994
2 28654  98.8120 178.8851 0014013 354.4619   5.6397 14.13717131 76422
NOAA 19                 
1 33591U 09005A   26098.25381877  .00000038  00000+0  44193-4 0  9996
2 33591  98.9555 169.0668 0013068 224.8283 135.1834 14.13462852884604
SUOMI NPP               
1 37849U 11061A   26098.27700426  .00000100  00000+0  68684-4 0  9999
2 37849  98.7905  39.6501 0002189 136.6996 223.4353 14.19502046748525
NOAA 20 (JPSS-1)        
1 43013U 17073A   26098.22063543  .00000089  00000+0  63317-4 0  9999
2 43013  98.7726  38.3206 0002103  97.7540 262.3875 14.19544136434543
