[{"OBJECT_NAME":"NOAA 18","OBJECT_ID":"2005-018A","EPOCH":"2026-04-08T04:43:04.296864","MEAN_MOTION":14.13717131,"ECCENTRICITY":0.00140133,"INCLINATION":98.812,"RA_OF_ASC_NODE":178.8851,"ARG_OF_PERICENTER":354.4619,"MEAN_ANOMALY":5.6397,"EPHEMERIS_TYPE":0,"CLASSIFICATION_TYPE":"U","NORAD_CAT_ID":28654,"ELEMENT_SET_NO":999,"REV_AT_EPOCH":7642,"BSTAR":4.6871697e-5,"MEAN_MOTION_DOT":4.5e-7,"MEAN_MOTION_DDOT":0},{"OBJECT_NAME":"NOAA 19","OBJECT_ID":"2009-005A","EPOCH":"2026-04-08T06:05:29.941728","MEAN_MOTION":14.13462852,"ECCENTRICITY":0.0013068,"INCLINATION":98.9555,"RA_OF_ASC_NODE":169.0668,"ARG_OF_PERICENTER":224.8283,"MEAN_ANOMALY":135.1834,"EPHEMERIS_TYPE":0,"CLASSIFICATION_TYPE":"U","NORAD_CAT_ID":33591,"ELEMENT_SET_NO":999,"REV_AT_EPOCH":88460,"BSTAR":4.4193078e-5,"MEAN_MOTION_DOT":3.8e-7,"MEAN_MOTION_DDOT":0},{"OBJECT_NAME":"SUOMI NPP","OBJECT_ID":"2011-061A","EPOCH":"2026-04-08T06:38:53.168064","MEAN_MOTION":14.19502046,"ECCENTRICITY":0.0002189,"INCLINATION":98.7905,"RA_OF_ASC_NODE":39.6501,"ARG_OF_PERICENTER":136.6996,"MEAN_ANOMALY":223.4353,"EPHEMERIS_TYPE":0,"CLASSIFICATION_TYPE":"U","NORAD_CAT_ID":37849,"ELEMENT_SET_NO":999,"REV_AT_EPOCH":74852,"BSTAR":6.8683758e-5,"MEAN_MOTION_DOT":1.0e-6,"MEAN_MOTION_DDOT":0},{"OBJECT_NAME":"NOAA 20 (JPSS-1)","OBJECT_ID":"2017-073A","EPOCH":"2026-04-08T05:17:42.901152","MEAN_MOTION":14.19544136,"ECCENTRICITY":0.00021034,"INCLINATION":98.7726,"RA_OF_ASC_NODE":38.3206,"ARG_OF_PERICENTER":97.754,"MEAN_ANOMALY":262.3875,"EPHEMERIS_TYPE":0,"CLASSIFICATION_TYPE":"U","NORAD_CAT_ID":43013,"ELEMENT_SET_NO":999,"REV_AT_EPOCH":43454,"BSTAR":6.3316746e-5,"MEAN_MOTION_DOT":8.9e-7,"MEAN_MOTION_DDOT":0}]
